[Satellite]
VERSION=1.1
NAME=SJ-6C
NICKNAME=SJ-6C
TLE1=1 29505U 06046A   19317.70751296 -.00000002  00000-0  51760-5 0  9992
TLE2=2 29505  97.8240 327.1248 0005722  46.5909 313.5795 14.94740117711234
STATUS=0
